STARLINK-30781          
1 58123U 23162F   26008.21689652  .00000044  00000+0  18297-4 0  9996
2 58123  43.0027 101.6571 0001416 269.1777  90.8903 15.02535817123203
STARLINK-30754          
1 58124U 23162G   26008.23686671  .00001709  00000+0  14159-3 0  9998
2 58124  43.0049 101.7918 0001296 272.2270  87.8424 15.02529760117413
STARLINK-30766          
1 58125U 23162H   26007.94764802  .00000003  00000+0  15294-4 0  9997
2 58125  43.0032 103.0775 0001566 265.9317  94.1346 15.02540584123163
STARLINK-30767          
1 58126U 23162J   26007.94431561  .00000474  00000+0  50138-4 0  9999
2 58126  43.0038 103.0522 0001500 269.3570  90.7101 15.02544246123167
STARLINK-30790          
1 58127U 23162K   26008.24093169  .00040832  00000+0  26273-2 0  9995
2 58127  43.0013 100.1396 0005641 358.1668   1.9155 15.07721004123227
STARLINK-30787          
1 58128U 23162L   26008.27003583 -.00002794  00000+0 -19171-3 0  9997
2 58128  43.0039 101.1955 0000907 271.9159  88.1579 15.02566963123217
STARLINK-30756          
1 58129U 23162M   26008.30002043  .00006313  00000+0  48216-3 0  9993
2 58129  43.0051 101.4033 0001270 256.1840 103.8862 15.02522254123213
STARLINK-30783          
1 58130U 23162N   26008.26672019 -.00000328  00000+0 -92259-5 0  9996
2 58130  43.0044 101.1692 0001183 268.3811  91.6896 15.02536509123210
STARLINK-30757          
1 58131U 23162P   26008.26339186 -.00000378  00000+0 -12918-4 0  9990
2 58131  43.0034 101.1425 0001410 270.4525  89.6156 15.02535456123219
STARLINK-30770          
1 58132U 23162Q   26008.23020587  .00000458  00000+0  48933-4 0  9993
2 58132  43.0030 101.7309 0000735 254.9093 105.1668 15.02536189123204
STARLINK-30758          
1 58133U 23162R   26008.26227514 -.00002025  00000+0 -13484-3 0  9992
2 58133  43.0038 101.1357 0001664 267.3352  92.7300 15.02549471123211
STARLINK-30761          
1 58134U 23162S   26008.29335893 -.00000644  00000+0 -32586-4 0  9996
2 58134  43.0032 101.3537 0001363 272.2533  87.8153 15.02534092123214
STARLINK-30772          
1 58135U 23162T   26008.26016507 -.00009154  00000+0 -66263-3 0  9995
2 58135  43.0025 101.9650 0000312 303.3896  56.6917 15.02583682123200
STARLINK-30776          
1 58136U 23162U   26008.25129852 -.00000926  00000+0 -53462-4 0  9999
2 58136  42.9997 101.8755 0000641 290.5021  69.5753 15.02546843123203
STARLINK-30782          
1 58137U 23162V   26008.25350817 -.00003949  00000+0 -27726-3 0  9998
2 58137  43.0043 101.9162 0001513 271.1281  88.9388 15.02560181123203
STARLINK-30769          
1 58138U 23162W   26008.24685478  .00001023  00000+0  90823-4 0  9990
2 58138  43.0039 101.8661 0001580 260.9459  99.1205 15.02537567123203
