[{"OBJECT_NAME":"STARLINK-30781","OBJECT_ID":"2023-162F","EPOCH":"2026-01-08T05:12:19.859328","MEAN_MOTION":15.02535817,"ECCENTRICITY":0.00014165,"INCLINATION":43.0027,"RA_OF_ASC_NODE":101.6571,"ARG_OF_PERICENTER":269.1777,"MEAN_ANOMALY":90.8903,"EPHEMERIS_TYPE":0,"CLASSIFICATION_TYPE":"U","NORAD_CAT_ID":58123,"ELEMENT_SET_NO":999,"REV_AT_EPOCH":12320,"BSTAR":1.8296913e-5,"MEAN_MOTION_DOT":4.4e-7,"MEAN_MOTION_DDOT":0},{"OBJECT_NAME":"STARLINK-30754","OBJECT_ID":"2023-162G","EPOCH":"2026-01-08T05:41:05.283744","MEAN_MOTION":15.0252976,"ECCENTRICITY":0.00012962,"INCLINATION":43.0049,"RA_OF_ASC_NODE":101.7918,"ARG_OF_PERICENTER":272.227,"MEAN_ANOMALY":87.8424,"EPHEMERIS_TYPE":0,"CLASSIFICATION_TYPE":"U","NORAD_CAT_ID":58124,"ELEMENT_SET_NO":999,"REV_AT_EPOCH":11741,"BSTAR":0.00014159208,"MEAN_MOTION_DOT":1.709e-5,"MEAN_MOTION_DDOT":0},{"OBJECT_NAME":"STARLINK-30766","OBJECT_ID":"2023-162H","EPOCH":"2026-01-07T22:44:36.788928","MEAN_MOTION":15.02540584,"ECCENTRICITY":0.0001566,"INCLINATION":43.0032,"RA_OF_ASC_NODE":103.0775,"ARG_OF_PERICENTER":265.9317,"MEAN_ANOMALY":94.1346,"EPHEMERIS_TYPE":0,"CLASSIFICATION_TYPE":"U","NORAD_CAT_ID":58125,"ELEMENT_SET_NO":999,"REV_AT_EPOCH":12316,"BSTAR":1.5294e-5,"MEAN_MOTION_DOT":3.0e-8,"MEAN_MOTION_DDOT":0},{"OBJECT_NAME":"STARLINK-30767","OBJECT_ID":"2023-162J","EPOCH":"2026-01-07T22:39:48.868704","MEAN_MOTION":15.02544246,"ECCENTRICITY":0.00015,"INCLINATION":43.0038,"RA_OF_ASC_NODE":103.0522,"ARG_OF_PERICENTER":269.357,"MEAN_ANOMALY":90.7101,"EPHEMERIS_TYPE":0,"CLASSIFICATION_TYPE":"U","NORAD_CAT_ID":58126,"ELEMENT_SET_NO":999,"REV_AT_EPOCH":12316,"BSTAR":5.0138e-5,"MEAN_MOTION_DOT":4.74e-6,"MEAN_MOTION_DDOT":0},{"OBJECT_NAME":"STARLINK-30790","OBJECT_ID":"2023-162K","EPOCH":"2026-01-08T05:46:56.498016","MEAN_MOTION":15.07721004,"ECCENTRICITY":0.00056416,"INCLINATION":43.0013,"RA_OF_ASC_NODE":100.1396,"ARG_OF_PERICENTER":358.1668,"MEAN_ANOMALY":1.9155,"EPHEMERIS_TYPE":0,"CLASSIFICATION_TYPE":"U","NORAD_CAT_ID":58127,"ELEMENT_SET_NO":999,"REV_AT_EPOCH":12322,"BSTAR":0.0026272511,"MEAN_MOTION_DOT":0.00040832,"MEAN_MOTION_DDOT":0},{"OBJECT_NAME":"STARLINK-30787","OBJECT_ID":"2023-162L","EPOCH":"2026-01-08T06:28:51.095712","MEAN_MOTION":15.02566963,"ECCENTRICITY":9.072e-5,"INCLINATION":43.0039,"RA_OF_ASC_NODE":101.1955,"ARG_OF_PERICENTER":271.9159,"MEAN_ANOMALY":88.1579,"EPHEMERIS_TYPE":0,"CLASSIFICATION_TYPE":"U","NORAD_CAT_ID":58128,"ELEMENT_SET_NO":999,"REV_AT_EPOCH":12321,"BSTAR":-0.00019171448,"MEAN_MOTION_DOT":-2.794e-5,"MEAN_MOTION_DDOT":0},{"OBJECT_NAME":"STARLINK-30756","OBJECT_ID":"2023-162M","EPOCH":"2026-01-08T07:12:01.765152","MEAN_MOTION":15.02522254,"ECCENTRICITY":0.00012702,"INCLINATION":43.0051,"RA_OF_ASC_NODE":101.4033,"ARG_OF_PERICENTER":256.184,"MEAN_ANOMALY":103.8862,"EPHEMERIS_TYPE":0,"CLASSIFICATION_TYPE":"U","NORAD_CAT_ID":58129,"ELEMENT_SET_NO":999,"REV_AT_EPOCH":12321,"BSTAR":0.00048215706,"MEAN_MOTION_DOT":6.313e-5,"MEAN_MOTION_DDOT":0},{"OBJECT_NAME":"STARLINK-30783","OBJECT_ID":"2023-162N","EPOCH":"2026-01-08T06:24:04.624416","MEAN_MOTION":15.02536509,"ECCENTRICITY":0.0001183,"INCLINATION":43.0044,"RA_OF_ASC_NODE":101.1692,"ARG_OF_PERICENTER":268.3811,"MEAN_ANOMALY":91.6896,"EPHEMERIS_TYPE":0,"CLASSIFICATION_TYPE":"U","NORAD_CAT_ID":58130,"ELEMENT_SET_NO":999,"REV_AT_EPOCH":12321,"BSTAR":-9.225872e-6,"MEAN_MOTION_DOT":-3.28e-6,"MEAN_MOTION_DDOT":0},{"OBJECT_NAME":"STARLINK-30757","OBJECT_ID":"2023-162P","EPOCH":"2026-01-08T06:19:17.056704","MEAN_MOTION":15.02535456,"ECCENTRICITY":0.00014109,"INCLINATION":43.0034,"RA_OF_ASC_NODE":101.1425,"ARG_OF_PERICENTER":270.4525,"MEAN_ANOMALY":89.6156,"EPHEMERIS_TYPE":0,"CLASSIFICATION_TYPE":"U","NORAD_CAT_ID":58131,"ELEMENT_SET_NO":999,"REV_AT_EPOCH":12321,"BSTAR":-1.2917763e-5,"MEAN_MOTION_DOT":-3.78e-6,"MEAN_MOTION_DDOT":0},{"OBJECT_NAME":"STARLINK-30770","OBJECT_ID":"2023-162Q","EPOCH":"2026-01-08T05:31:29.787168","MEAN_MOTION":15.02536189,"ECCENTRICITY":7.351e-5,"INCLINATION":43.003,"RA_OF_ASC_NODE":101.7309,"ARG_OF_PERICENTER":254.9093,"MEAN_ANOMALY":105.1668,"EPHEMERIS_TYPE":0,"CLASSIFICATION_TYPE":"U","NORAD_CAT_ID":58132,"ELEMENT_SET_NO":999,"REV_AT_EPOCH":12320,"BSTAR":4.8932927e-5,"MEAN_MOTION_DOT":4.58e-6,"MEAN_MOTION_DDOT":0},{"OBJECT_NAME":"STARLINK-30758","OBJECT_ID":"2023-162R","EPOCH":"2026-01-08T06:17:40.572096","MEAN_MOTION":15.02549471,"ECCENTRICITY":0.00016641,"INCLINATION":43.0038,"RA_OF_ASC_NODE":101.1357,"ARG_OF_PERICENTER":267.3352,"MEAN_ANOMALY":92.73,"EPHEMERIS_TYPE":0,"CLASSIFICATION_TYPE":"U","NORAD_CAT_ID":58133,"ELEMENT_SET_NO":999,"REV_AT_EPOCH":12321,"BSTAR":-0.00013484027,"MEAN_MOTION_DOT":-2.025e-5,"MEAN_MOTION_DDOT":0},{"OBJECT_NAME":"STARLINK-30761","OBJECT_ID":"2023-162S","EPOCH":"2026-01-08T07:02:26.211552","MEAN_MOTION":15.02534092,"ECCENTRICITY":0.00013631,"INCLINATION":43.0032,"RA_OF_ASC_NODE":101.3537,"ARG_OF_PERICENTER":272.2533,"MEAN_ANOMALY":87.8153,"EPHEMERIS_TYPE":0,"CLASSIFICATION_TYPE":"U","NORAD_CAT_ID":58134,"ELEMENT_SET_NO":999,"REV_AT_EPOCH":12321,"BSTAR":-3.2586242e-5,"MEAN_MOTION_DOT":-6.44e-6,"MEAN_MOTION_DDOT":0},{"OBJECT_NAME":"STARLINK-30772","OBJECT_ID":"2023-162T","EPOCH":"2026-01-08T06:14:38.262048","MEAN_MOTION":15.02583682,"ECCENTRICITY":3.124e-5,"INCLINATION":43.0025,"RA_OF_ASC_NODE":101.965,"ARG_OF_PERICENTER":303.3896,"MEAN_ANOMALY":56.6917,"EPHEMERIS_TYPE":0,"CLASSIFICATION_TYPE":"U","NORAD_CAT_ID":58135,"ELEMENT_SET_NO":999,"REV_AT_EPOCH":12320,"BSTAR":-0.00066263351,"MEAN_MOTION_DOT":-9.154e-5,"MEAN_MOTION_DDOT":0},{"OBJECT_NAME":"STARLINK-30776","OBJECT_ID":"2023-162U","EPOCH":"2026-01-08T06:01:52.192128","MEAN_MOTION":15.02546843,"ECCENTRICITY":6.412e-5,"INCLINATION":42.9997,"RA_OF_ASC_NODE":101.8755,"ARG_OF_PERICENTER":290.5021,"MEAN_ANOMALY":69.5753,"EPHEMERIS_TYPE":0,"CLASSIFICATION_TYPE":"U","NORAD_CAT_ID":58136,"ELEMENT_SET_NO":999,"REV_AT_EPOCH":12320,"BSTAR":-5.3461942e-5,"MEAN_MOTION_DOT":-9.26e-6,"MEAN_MOTION_DDOT":0},{"OBJECT_NAME":"STARLINK-30782","OBJECT_ID":"2023-162V","EPOCH":"2026-01-08T06:05:03.105888","MEAN_MOTION":15.02560181,"ECCENTRICITY":0.00015136,"INCLINATION":43.0043,"RA_OF_ASC_NODE":101.9162,"ARG_OF_PERICENTER":271.1281,"MEAN_ANOMALY":88.9388,"EPHEMERIS_TYPE":0,"CLASSIFICATION_TYPE":"U","NORAD_CAT_ID":58137,"ELEMENT_SET_NO":999,"REV_AT_EPOCH":12320,"BSTAR":-0.00027725865,"MEAN_MOTION_DOT":-3.949e-5,"MEAN_MOTION_DDOT":0},{"OBJECT_NAME":"STARLINK-30769","OBJECT_ID":"2023-162W","EPOCH":"2026-01-08T05:55:28.252992","MEAN_MOTION":15.02537567,"ECCENTRICITY":0.00015804,"INCLINATION":43.0039,"RA_OF_ASC_NODE":101.8661,"ARG_OF_PERICENTER":260.9459,"MEAN_ANOMALY":99.1205,"EPHEMERIS_TYPE":0,"CLASSIFICATION_TYPE":"U","NORAD_CAT_ID":58138,"ELEMENT_SET_NO":999,"REV_AT_EPOCH":12320,"BSTAR":9.0823393e-5,"MEAN_MOTION_DOT":1.023e-5,"MEAN_MOTION_DDOT":0}]
